0 FENGYUN 1C DEB
1 36156U 99025DSD 13281.26731182  .00001923  00000-0  90849-3 0  1878
2 36156 098.9144 299.7169 0058116 087.2921 273.5062 14.20072693254854
0 FENGYUN 1C DEB
1 36156U 99025DSD 13285.84707037  .00001947  00000-0  91877-3 0  1887
2 36156 098.9154 304.3339 0058284 074.4420 286.3360 14.20091423255503
0 FENGYUN 1C DEB
1 36156U 99025DSD 13287.25621053  .00002097  00000-0  98892-3 0  1899
2 36156 098.9113 305.7392 0056815 068.4930 292.3688 14.20102340255702
0 FENGYUN 1C DEB
1 36156U 99025DSD 13290.84945670  .00002179  00000-0  10257-2 0  1903
2 36156 098.9124 309.3651 0058122 058.4074 302.3029 14.20119917256219
0 FENGYUN 1C DEB
1 36156U 99025DSD 13291.27218595  .00002303  00000-0  10826-2 0  1912
2 36156 098.9118 309.7922 0058238 056.7190 304.0826 14.20126359256273
0 FENGYUN 1C DEB
1 36156U 99025DSD 13293.87899065  .00002391  00000-0  11221-2 0  1925
2 36156 098.9139 312.4185 0058944 051.0216 309.6421 14.20141604256642
